[{"OBJECT_NAME":"ION SCV-008","OBJECT_ID":"2023-001AU","EPOCH":"2026-03-09T19:46:58.662912","MEAN_MOTION":15.2722664,"ECCENTRICITY":0.00151921,"INCLINATION":97.5676,"RA_OF_ASC_NODE":163.606,"ARG_OF_PERICENTER":8.542,"MEAN_ANOMALY":351.6074,"EPHEMERIS_TYPE":0,"CLASSIFICATION_TYPE":"U","NORAD_CAT_ID":55051,"ELEMENT_SET_NO":999,"REV_AT_EPOCH":17616,"BSTAR":0.00031422806,"MEAN_MOTION_DOT":8.336e-5,"MEAN_MOTION_DDOT":0},{"OBJECT_NAME":"STARLINK-35984","OBJECT_ID":"2025-278Z","EPOCH":"2026-03-09T04:11:39.932736","MEAN_MOTION":15.27588008,"ECCENTRICITY":0.00024612,"INCLINATION":43.0013,"RA_OF_ASC_NODE":116.9847,"ARG_OF_PERICENTER":285.4958,"MEAN_ANOMALY":74.5622,"EPHEMERIS_TYPE":0,"CLASSIFICATION_TYPE":"U","NORAD_CAT_ID":66814,"ELEMENT_SET_NO":999,"REV_AT_EPOCH":1513,"BSTAR":0.0009128834,"MEAN_MOTION_DOT":0.00024951,"MEAN_MOTION_DDOT":0}]
